BEIDOU-3 M14            
1 43623U 18072B   26128.12957530 -.00000022  00000+0  00000+0 0  9990
2 43623  56.5933  63.9752 0006728 345.1503  14.8183  1.86231552 51900
BEIDOU-3 M16            
1 43647U 18078A   26128.82247648 -.00000037  00000+0  00000+0 0  9997
2 43647  54.1272 301.3654 0007972  39.2456 320.8026  1.86232403 51425
BEIDOU-3 M15            
1 43648U 18078B   26127.87787740 -.00000040  00000+0  00000+0 0  9998
2 43648  54.1232 301.3987 0005096  51.2127 308.8211  1.86232640 51420
BEIDOU-3 G1             
1 43683U 18085A   26129.17830662 -.00000098  00000+0  00000+0 0  9995
2 43683   2.9753  98.4032 0007631 337.5274  15.2322  1.00273321 27661
BEIDOU-3 M17            
1 43706U 18093A   26128.57360565  .00000038  00000+0  00000+0 0  9996
2 43706  54.1670 183.6407 0009115 291.3592  67.2398  1.86228634 50797
BEIDOU-3 M18            
1 43707U 18093B   26127.36477020  .00000032  00000+0  00000+0 0  9992
2 43707  54.1680 183.6737 0007248 323.3441  36.6857  1.86226701 50781
BEIDOU-3 IGSO-1         
1 44204U 19023A   26128.76049988 -.00000215  00000+0  00000+0 0  9996
2 44204  58.6418  38.0582 0024055 234.4286 343.5157  1.00252154  6812
BEIDOU-2 G8             
1 44231U 19027A   26129.21406984 -.00000238  00000+0  00000+0 0  9999
2 44231   1.5593  74.4095 0011110 281.8979  92.2925  1.00274971 25698
BEIDOU-3 IGSO-2         
1 44337U 19035A   26127.49340634 -.00000080  00000+0  00000+0 0  9997
2 44337  55.2382 159.2198 0039438 215.2298 148.3232  1.00279939 25267
BEIDOU-3 M24            
1 44542U 19061A   26129.04479800  .00000042  00000+0  00000+0 0  9992
2 44542  54.3946 184.0482 0008103   3.6991 356.3835  1.86229217 45065
BEIDOU-3 M23            
1 44543U 19061B   26128.10950628  .00000035  00000+0  00000+0 0  9993
2 44543  54.3932 184.0482 0005162 345.2349  19.6330  1.86227502 45058
BEIDOU-3 IGSO-3         
1 44709U 19073A   26120.85038409 -.00000212  00000+0  00000+0 0  9996
2 44709  54.8842 281.4069 0042404 188.8195 170.9972  1.00251230 23982
BEIDOU-3 M22            
1 44793U 19078A   26128.88405954 -.00000038  00000+0  00000+0 0  9994
2 44793  53.9729 301.2100 0007207  47.1231 312.9277  1.86227541 43919
BEIDOU-3 M21            
1 44794U 19078B   26128.48712020 -.00000039  00000+0  00000+0 0  9997
2 44794  53.9466 301.1860 0005016  44.8134 315.2166  1.86228062 43914
BEIDOU-3 M19            
1 44864U 19090A   26128.45489995 -.00000021  00000+0  00000+0 0  9999
2 44864  56.5258  64.1039 0019341 296.1478 239.2902  1.86231845 43492
BEIDOU-3 M20            
1 44865U 19090B   26128.90069488 -.00000020  00000+0  00000+0 0  9990
2 44865  56.5276  64.1237 0017101 308.7938 255.1264  1.86231726 43481
BEIDOU-3 G2             
1 45344U 20017A   26129.13000282 -.00000131  00000+0  00000+0 0  9990
2 45344   2.7859  46.7179 0002972   6.0201 301.0509  1.00271194 22867
BEIDOU-3 G3             
1 45807U 20040A   26129.06477737 -.00000345  00000+0  00000+0 0  9992
2 45807   2.3513  67.3312 0003562 332.2309 321.1025  1.00278166 21671
BEIDOU-3 G4             
1 56564U 23066A   26128.99931380 -.00000274  00000+0  00000+0 0  9996
2 56564   0.5393 322.2741 0003543 158.7154 245.6192  1.00268201 11006
BEIDOU-3 M28            
1 58654U 23207A   26128.02736231 -.00000025  00000+0  00000+0 0  9991
2 58654  55.7190  63.6577 0004341 328.1239  31.8381  1.86229829 16098
BEIDOU-3 M26            
1 58655U 23207B   26128.89877583 -.00000023  00000+0  00000+0 0  9991
2 58655  55.7218  63.6147 0004584 308.3454  51.6033  1.86229772 16092
BEIDOU-3 M25            
1 61186U 24168B   26128.72217630 -.00000038  00000+0  00000+0 0  9990
2 61186  54.5099 303.6138 0003219 315.5987  43.1750  1.86230280 11049
BEIDOU-3 M27            
1 61187U 24168C   26129.05472400 -.00000038  00000+0  00000+0 0  9996
2 61187  54.5049 303.5853 0002348  41.6147 315.1318  1.86230358  8522
